ONEWEB-0369             
1 49295U 21090S   26195.85509804 -.00000039  00000+0 -12997-3 0  9997
2 49295  87.9186 299.4642 0002031 103.6405 256.4953 13.19726281230066
ONEWEB-0370             
1 49296U 21090T   26196.20243412 -.00000017  00000+0 -74944-4 0  9995
2 49296  87.9184 268.8578 0002303  94.9379 265.2017 13.20772103233560
ONEWEB-0371             
1 49297U 21090U   26195.78717673  .00000029  00000+0  39888-4 0  9992
2 49297  87.9191 299.4722 0002097 102.0345 258.1023 13.19725011230091
ONEWEB-0372             
1 49298U 21090V   26195.73764145  .00000016  00000+0  79985-5 0  9993
2 49298  87.9189 268.9523 0002088 100.9091 259.2278 13.20769687233472
ONEWEB-0373             
1 49299U 21090W   26196.14181633  .00000079  00000+0  16122-3 0  9996
2 49299  87.9182 268.8713 0002090  96.4388 263.6984 13.20773121234716
ONEWEB-0374             
1 49300U 21090X   26196.20618830 -.00000102  00000+0 -30918-3 0  9998
2 49300  87.8969 284.1159 0001552  88.4842 271.6465 13.14503251231240
ONEWEB-0375             
1 49301U 21090Y   26196.13003470  .00000061  00000+0  11893-3 0  9992
2 49301  87.9186 268.8661 0001680  86.3865 273.7461 13.20773078234216
ONEWEB-0376             
1 49302U 21090Z   26195.78558965  .00000048  00000+0  86522-4 0  9994
2 49302  87.9191 299.4723 0002064 105.8943 254.2418 13.19726371230093
ONEWEB-0377             
1 49303U 21090AA  26196.19246281  .00000046  00000+0  81002-4 0  9992
2 49303  87.9187 268.8556 0001943  94.9118 265.2237 13.20773385234218
ONEWEB-0378             
1 49304U 21090AB  26196.21267789  .00000117  00000+0  25556-3 0  9992
2 49304  87.9182 268.8552 0001920  98.3871 261.7480 13.20772351233480
ONEWEB-0379             
1 49305U 21090AC  26196.20143666 -.00000137  00000+0 -40397-3 0  9993
2 49305  87.8969 284.1270 0001900  99.4999 260.6345 13.14502582231242
ONEWEB-0380             
1 49306U 21090AD  26195.78244142 -.00000051  00000+0 -16010-3 0  9997
2 49306  87.9186 299.4761 0002019  95.4331 264.7032 13.19726610230069
ONEWEB-0381             
1 49307U 21090AE  26196.18894492 -.00000241  00000+0 -62559-3 0  9992
2 49307  87.9188 268.8609 0001828  95.1435 264.9907 13.20771346233527
ONEWEB-0382             
1 49308U 21090AF  26196.17550091  .00000039  00000+0  63998-4 0  9998
2 49308  87.9185 268.8577 0001782  97.1549 262.9787 13.20771909233514
ONEWEB-0383             
1 49309U 21090AG  26196.19509355 -.00000172  00000+0 -49756-3 0  9993
2 49309  87.8973 284.1203 0001863 101.0849 259.0490 13.14502915231275
ONEWEB-0384             
1 49310U 21090AH  26196.16325453  .00000113  00000+0  24480-3 0  9997
2 49310  87.9189 268.9040 0001580  99.2166 260.9146 13.20814046233529
ONEWEB-0385             
1 49311U 21090AJ  26196.16875439  .00000013  00000+0 -97267-7 0  9999
2 49311  87.9183 268.8646 0001876  96.8156 263.3190 13.20769389233496
ONEWEB-0386             
1 49312U 21090AK  26196.18558208 -.00000006  00000+0 -45801-4 0  9991
2 49312  87.9190 268.8531 0001792  98.2826 261.8510 13.20773343233512
ONEWEB-0387             
1 49313U 21090AL  26196.17043628  .00000065  00000+0  12795-3 0  9994
2 49313  87.9176 268.8747 0001992  88.3438 271.7924 13.20769827233518
ONEWEB-0388             
1 49314U 21090AM  26195.85351664  .00000046  00000+0  81772-4 0  9992
2 49314  87.9184 299.4601 0001870 100.0414 260.0930 13.19726810230066
ONEWEB-0389             
1 50469U 21132A   26195.99134426  .00000042  00000+0  75617-4 0  9999
2 50469  87.9144   0.3361 0001718  82.9631 277.1696 13.17650670221748
ONEWEB-0390             
1 50470U 21132B   26195.99303100  .00000070  00000+0  14688-3 0  9999
2 50470  87.9145   0.3367 0002080  91.4478 268.6892 13.17651486221743
ONEWEB-0391             
1 50471U 21132C   26195.99471936  .00000009  00000+0 -10058-4 0  9994
2 50471  87.9146   0.3463 0002019  69.3942 290.7406 13.17650524221743
ONEWEB-0392             
1 50472U 21132D   26196.02509808 -.00000012  00000+0 -63065-4 0  9991
2 50472  87.9152   0.3110 0001782  80.3975 279.7358 13.17650740221782
ONEWEB-0393             
1 50473U 21132E   26196.00063819 -.00000004  00000+0 -42226-4 0  9994
2 50473  87.9144   0.3304 0001817  86.7086 273.4254 13.17647823221774
ONEWEB-0394             
1 50474U 21132F   26195.86890875  .00000027  00000+0  36195-4 0  9999
2 50474  87.9195 329.9380 0001753  97.9397 262.1934 13.18684545225242
ONEWEB-0395             
1 50475U 21132G   26196.01536568  .00000266  00000+0  71452-3 0  9993
2 50475  87.8884  15.5247 0002024  85.2213 274.9146 13.11419212219368
ONEWEB-0396             
1 50476U 21132H   26195.93804840  .00000006  00000+0 -18064-4 0  9999
2 50476  87.9196 329.9372 0001747  95.1720 264.9611 13.18686485225291
ONEWEB-0397             
1 50477U 21132J   26195.87734248  .00000045  00000+0  80873-4 0  9996
2 50477  87.9197 329.9495 0001633  97.4189 262.7128 13.18686331225263
ONEWEB-0398             
1 50478U 21132K   26195.98314610 -.00000457  00000+0 -13264-2 0  9993
2 50478  87.8890  15.5242 0002162  89.0270 271.1105 13.11416018219254
ONEWEB-0399             
1 50479U 21132L   26196.04588817  .00000063  00000+0  14069-3 0  9990
2 50479  87.8890  15.5227 0001534  77.6020 282.5280 13.11414655219251
