OBJECT_NAME,OBJECT_ID,EPOCH,MEAN_MOTION,ECCENTRICITY,INCLINATION,RA_OF_ASC_NODE,ARG_OF_PERICENTER,MEAN_ANOMALY,EPHEMERIS_TYPE,CLASSIFICATION_TYPE,NORAD_CAT_ID,ELEMENT_SET_NO,REV_AT_EPOCH,BSTAR,MEAN_MOTION_DOT,MEAN_MOTION_DDOT
ONEWEB-0369,2021-090S,2026-07-14T20:31:20.470656,13.19726281,.0002031,87.9186,299.4642,103.6405,256.4953,0,U,49295,999,23006,-.12997E-3,-.39E-6,0
ONEWEB-0370,2021-090T,2026-07-15T04:51:30.307968,13.20772103,.0002303,87.9184,268.8578,94.9379,265.2017,0,U,49296,999,23356,-.74944E-4,-.17E-6,0
ONEWEB-0371,2021-090U,2026-07-14T18:53:32.069472,13.19725011,.00020975,87.9191,299.4722,102.0345,258.1023,0,U,49297,999,23009,.39888008E-4,.29E-6,0
ONEWEB-0372,2021-090V,2026-07-14T17:42:12.221280,13.20769687,.00020883,87.9189,268.9523,100.9091,259.2278,0,U,49298,999,23347,.7998528E-5,.16E-6,0
ONEWEB-0373,2021-090W,2026-07-15T03:24:12.930912,13.20773121,.000209,87.9182,268.8713,96.4388,263.6984,0,U,49299,999,23471,.16122E-3,.79E-6,0
ONEWEB-0374,2021-090X,2026-07-15T04:56:54.669120,13.14503251,.0001552,87.8969,284.1159,88.4842,271.6465,0,U,49300,999,23124,-.30918E-3,-.102E-5,0
ONEWEB-0375,2021-090Y,2026-07-15T03:07:14.998080,13.20773078,.000168,87.9186,268.8661,86.3865,273.7461,0,U,49301,999,23421,.11893E-3,.61E-6,0
ONEWEB-0376,2021-090Z,2026-07-14T18:51:14.945760,13.19726371,.00020648,87.9191,299.4723,105.8943,254.2418,0,U,49302,999,23009,.86521825E-4,.48E-6,0
ONEWEB-0377,2021-090AA,2026-07-15T04:37:08.786784,13.20773385,.0001943,87.9187,268.8556,94.9118,265.2237,0,U,49303,999,23421,.81002E-4,.46E-6,0
ONEWEB-0378,2021-090AB,2026-07-15T05:06:15.369696,13.20772351,.000192,87.9182,268.8552,98.3871,261.7480,0,U,49304,999,23348,.25556E-3,.117E-5,0
ONEWEB-0379,2021-090AC,2026-07-15T04:50:04.127424,13.14502582,.00019,87.8969,284.1270,99.4999,260.6345,0,U,49305,999,23124,-.40397E-3,-.137E-5,0
ONEWEB-0380,2021-090AD,2026-07-14T18:46:42.938688,13.19726610,.00020192,87.9186,299.4761,95.4331,264.7032,0,U,49306,999,23006,-.16010155E-3,-.51E-6,0
ONEWEB-0381,2021-090AE,2026-07-15T04:32:04.841088,13.20771346,.0001828,87.9188,268.8609,95.1435,264.9907,0,U,49307,999,23352,-.62559E-3,-.241E-5,0
ONEWEB-0382,2021-090AF,2026-07-15T04:12:43.278624,13.20771909,.0001782,87.9185,268.8577,97.1549,262.9787,0,U,49308,999,23351,.63998E-4,.39E-6,0
ONEWEB-0383,2021-090AG,2026-07-15T04:40:56.082720,13.14502915,.0001863,87.8973,284.1203,101.0849,259.0490,0,U,49309,999,23127,-.49756E-3,-.172E-5,0
ONEWEB-0384,2021-090AH,2026-07-15T03:55:05.191392,13.20814046,.000158,87.9189,268.9040,99.2166,260.9146,0,U,49310,999,23352,.2448E-3,.113E-5,0
ONEWEB-0385,2021-090AJ,2026-07-15T04:03:00.379296,13.20769389,.0001876,87.9183,268.8646,96.8156,263.3190,0,U,49311,999,23349,-.97267E-7,.13E-6,0
ONEWEB-0386,2021-090AK,2026-07-15T04:27:14.291712,13.20773343,.0001792,87.9190,268.8531,98.2826,261.8510,0,U,49312,999,23351,-.45801E-4,-.6E-7,0
ONEWEB-0387,2021-090AL,2026-07-15T04:05:25.694592,13.20769827,.0001992,87.9176,268.8747,88.3438,271.7924,0,U,49313,999,23351,.12795E-3,.65E-6,0
ONEWEB-0388,2021-090AM,2026-07-14T20:29:03.837696,13.19726810,.000187,87.9184,299.4601,100.0414,260.0930,0,U,49314,999,23006,.81772E-4,.46E-6,0
ONEWEB-0389,2021-132A,2026-07-14T23:47:32.144064,13.17650670,.0001718,87.9144,0.3361,82.9631,277.1696,0,U,50469,999,22174,.75617E-4,.42E-6,0
ONEWEB-0390,2021-132B,2026-07-14T23:49:57.878400,13.17651486,.000208,87.9145,0.3367,91.4478,268.6892,0,U,50470,999,22174,.14688E-3,.7E-6,0
ONEWEB-0391,2021-132C,2026-07-14T23:52:23.752704,13.17650524,.0002019,87.9146,0.3463,69.3942,290.7406,0,U,50471,999,22174,-.10058E-4,.9E-7,0
ONEWEB-0392,2021-132D,2026-07-15T00:36:08.474112,13.17650740,.0001782,87.9152,0.3110,80.3975,279.7358,0,U,50472,999,22178,-.63065E-4,-.12E-6,0
ONEWEB-0393,2021-132E,2026-07-15T00:00:55.139616,13.17647823,.0001817,87.9144,0.3304,86.7086,273.4254,0,U,50473,999,22177,-.42226E-4,-.4E-7,0
ONEWEB-0394,2021-132F,2026-07-14T20:51:13.716000,13.18684545,.0001753,87.9195,329.9380,97.9397,262.1934,0,U,50474,999,22524,.36195E-4,.27E-6,0
ONEWEB-0395,2021-132G,2026-07-15T00:22:07.594752,13.11419212,.0002024,87.8884,15.5247,85.2213,274.9146,0,U,50475,999,21936,.71452E-3,.266E-5,0
ONEWEB-0396,2021-132H,2026-07-14T22:30:47.381760,13.18686485,.0001747,87.9196,329.9372,95.1720,264.9611,0,U,50476,999,22529,-.18064E-4,.6E-7,0
ONEWEB-0397,2021-132J,2026-07-14T21:03:22.390272,13.18686331,.0001633,87.9197,329.9495,97.4189,262.7128,0,U,50477,999,22526,.80873E-4,.45E-6,0
ONEWEB-0398,2021-132K,2026-07-14T23:35:43.823040,13.11416018,.0002162,87.8890,15.5242,89.0270,271.1105,0,U,50478,999,21925,-.13264E-2,-.457E-5,0
ONEWEB-0399,2021-132L,2026-07-15T01:06:04.737888,13.11414655,.0001534,87.8890,15.5227,77.6020,282.5280,0,U,50479,999,21925,.14069E-3,.63E-6,0
